{
  "type": "FeatureCollection",
  "features": [
    {
      "type": "Feature",
      "properties": {
        "norad_id": 46805,
        "name": "COSMOS 2547 (705K)",
        "group": "glo-ops",
        "lat": 2.563511930189168,
        "lon": 17.617642650938595,
        "alt_km": 19120.418050579377,
        "timestamp": "2025-12-08T15:42:50.051957+00:00",
        "meta_object_name": "COSMOS 2547 (705K)",
        "meta_object_id": "2020-075A",
        "meta_epoch": "2025-12-07T22:54:27.999936",
        "meta_mean_motion": 2.13099949,
        "meta_eccentricity": 0.00062185,
        "meta_inclination": 64.596,
        "meta_ra_of_asc_node": 198.8564,
        "meta_arg_of_pericenter": 228.8188,
        "meta_mean_anomaly": 131.2072,
        "meta_ephemeris_type": 0,
        "meta_classification_type": "U",
        "meta_norad_cat_id": 46805,
        "meta_element_set_no": 999,
        "meta_rev_at_epoch": 3983,
        "meta_bstar": 0,
        "meta_mean_motion_dot": 5.3e-07,
        "meta_mean_motion_ddot": 0,
        "tle_line1": "1 46805U 20075A   25341.95449074  .00000053  00000+0  00000+0 0  9990",
        "tle_line2": "2 46805  64.5960 198.8564 0006218 228.8188 131.2072  2.13099949 39835"
      },
      "geometry": {
        "type": "Point",
        "coordinates": [
          17.617642650938595,
          2.563511930189168
        ]
      }
    },
    {
      "type": "Feature",
      "properties": {
        "norad_id": 52984,
        "name": "COSMOS 2557 (706K)",
        "group": "glo-ops",
        "lat": 43.99950132777169,
        "lon": -11.26076517800881,
        "alt_km": 19148.902562328498,
        "timestamp": "2025-12-08T15:42:50.051969+00:00",
        "meta_object_name": "COSMOS 2557 (706K)",
        "meta_object_id": "2022-075A",
        "meta_epoch": "2025-12-07T04:21:00.419904",
        "meta_mean_motion": 2.13101754,
        "meta_eccentricity": 0.00137049,
        "meta_inclination": 64.4129,
        "meta_ra_of_asc_node": 321.247,
        "meta_arg_of_pericenter": 276.9,
        "meta_mean_anomaly": 82.939,
        "meta_ephemeris_type": 0,
        "meta_classification_type": "U",
        "meta_norad_cat_id": 52984,
        "meta_element_set_no": 999,
        "meta_rev_at_epoch": 2662,
        "meta_bstar": 0,
        "meta_mean_motion_dot": -5.2e-07,
        "meta_mean_motion_ddot": 0,
        "tle_line1": "1 52984U 22075A   25341.18125486 -.00000052  00000+0  00000+0 0  9990",
        "tle_line2": "2 52984  64.4129 321.2470 0013704 276.9000  82.9390  2.13101754 26625"
      },
      "geometry": {
        "type": "Point",
        "coordinates": [
          -11.26076517800881,
          43.99950132777169
        ]
      }
    },
    {
      "type": "Feature",
      "properties": {
        "norad_id": 54031,
        "name": "COSMOS 2559 (707K)",
        "group": "glo-ops",
        "lat": -8.252048658066633,
        "lon": 145.26157007359075,
        "alt_km": 19101.206591491467,
        "timestamp": "2025-12-08T15:42:50.051981+00:00",
        "meta_object_name": "COSMOS 2559 (707K)",
        "meta_object_id": "2022-130A",
        "meta_epoch": "2025-12-07T22:32:04.492896",
        "meta_mean_motion": 2.1310126,
        "meta_eccentricity": 0.00119368,
        "meta_inclination": 64.385,
        "meta_ra_of_asc_node": 321.31,
        "meta_arg_of_pericenter": 192.6499,
        "meta_mean_anomaly": 167.316,
        "meta_ephemeris_type": 0,
        "meta_classification_type": "U",
        "meta_norad_cat_id": 54031,
        "meta_element_set_no": 999,
        "meta_rev_at_epoch": 2461,
        "meta_bstar": 0,
        "meta_mean_motion_dot": -5.2e-07,
        "meta_mean_motion_ddot": 0,
        "tle_line1": "1 54031U 22130A   25341.93894089 -.00000052  00000+0  00000+0 0  9992",
        "tle_line2": "2 54031  64.3850 321.3100 0011936 192.6499 167.3160  2.13101260 24614"
      },
      "geometry": {
        "type": "Point",
        "coordinates": [
          145.26157007359075,
          -8.252048658066633
        ]
      }
    },
    {
      "type": "Feature",
      "properties": {
        "norad_id": 54377,
        "name": "COSMOS 2564 (761)",
        "group": "glo-ops",
        "lat": -44.88735421178474,
        "lon": 170.97977287967703,
        "alt_km": 19140.24749294741,
        "timestamp": "2025-12-08T15:42:50.051991+00:00",
        "meta_object_name": "COSMOS 2564 (761)",
        "meta_object_id": "2022-161A",
        "meta_epoch": "2025-12-06T20:16:19.958016",
        "meta_mean_motion": 2.13101987,
        "meta_eccentricity": 0.0008674,
        "meta_inclination": 64.7378,
        "meta_ra_of_asc_node": 199.0949,
        "meta_arg_of_pericenter": 205.6872,
        "meta_mean_anomaly": 154.3558,
        "meta_ephemeris_type": 0,
        "meta_classification_type": "U",
        "meta_norad_cat_id": 54377,
        "meta_element_set_no": 999,
        "meta_rev_at_epoch": 2353,
        "meta_bstar": 0,
        "meta_mean_motion_dot": 6.7e-07,
        "meta_mean_motion_ddot": 0,
        "tle_line1": "1 54377U 22161A   25340.84467544  .00000067  00000+0  00000+0 0  9995",
        "tle_line2": "2 54377  64.7378 199.0949 0008674 205.6872 154.3558  2.13101987 23535"
      },
      "geometry": {
        "type": "Point",
        "coordinates": [
          170.97977287967703,
          -44.88735421178474
        ]
      }
    },
    {
      "type": "Feature",
      "properties": {
        "norad_id": 57517,
        "name": "COSMOS 2569 (703K)",
        "group": "glo-ops",
        "lat": -53.08483355705359,
        "lon": 41.12755227979378,
        "alt_km": 19109.874042872998,
        "timestamp": "2025-12-08T15:42:50.052003+00:00",
        "meta_object_name": "COSMOS 2569 (703K)",
        "meta_object_id": "2023-114A",
        "meta_epoch": "2025-12-07T19:07:05.045952",
        "meta_mean_motion": 2.13103857,
        "meta_eccentricity": 0.00103488,
        "meta_inclination": 65.1916,
        "meta_ra_of_asc_node": 79.0806,
        "meta_arg_of_pericenter": 287.0317,
        "meta_mean_anomaly": 72.8691,
        "meta_ephemeris_type": 0,
        "meta_classification_type": "U",
        "meta_norad_cat_id": 57517,
        "meta_element_set_no": 999,
        "meta_rev_at_epoch": 1818,
        "meta_bstar": 0,
        "meta_mean_motion_dot": -1.2e-07,
        "meta_mean_motion_ddot": 0,
        "tle_line1": "1 57517U 23114A   25341.79658618 -.00000012  00000+0  00000+0 0  9993",
        "tle_line2": "2 57517  65.1916  79.0806 0010348 287.0317  72.8691  2.13103857 18180"
      },
      "geometry": {
        "type": "Point",
        "coordinates": [
          41.12755227979378,
          -53.08483355705359
        ]
      }
    },
    {
      "type": "Feature",
      "properties": {
        "norad_id": 63130,
        "name": "COSMOS 2584 (704K)",
        "group": "glo-ops",
        "lat": 22.81713770934437,
        "lon": 90.60812646392007,
        "alt_km": 19146.42294596574,
        "timestamp": "2025-12-08T15:42:50.052014+00:00",
        "meta_object_name": "COSMOS 2584 (704K)",
        "meta_object_id": "2025-042A",
        "meta_epoch": "2025-12-08T03:39:29.178720",
        "meta_mean_motion": 2.13102925,
        "meta_eccentricity": 0.0007602,
        "meta_inclination": 64.9737,
        "meta_ra_of_asc_node": 79.3022,
        "meta_arg_of_pericenter": 215.9611,
        "meta_mean_anomaly": 144.0025,
        "meta_ephemeris_type": 0,
        "meta_classification_type": "U",
        "meta_norad_cat_id": 63130,
        "meta_element_set_no": 999,
        "meta_rev_at_epoch": 597,
        "meta_bstar": 0,
        "meta_mean_motion_dot": -1.2e-07,
        "meta_mean_motion_ddot": 0,
        "tle_line1": "1 63130U 25042A   25342.15242105 -.00000012  00000+0  00000+0 0  9994",
        "tle_line2": "2 63130  64.9737  79.3022 0007602 215.9611 144.0025  2.13102925  5976"
      },
      "geometry": {
        "type": "Point",
        "coordinates": [
          90.60812646392007,
          22.81713770934437
        ]
      }
    },
    {
      "type": "Feature",
      "properties": {
        "norad_id": 65590,
        "name": "COSMOS 2596 (708K)",
        "group": "glo-ops",
        "lat": 32.22318069834153,
        "lon": 124.29943863850734,
        "alt_km": 19160.227762951556,
        "timestamp": "2025-12-08T15:42:50.052025+00:00",
        "meta_object_name": "COSMOS 2596 (708K)",
        "meta_object_id": "2025-206B",
        "meta_epoch": "2025-12-08T01:45:50.514048",
        "meta_mean_motion": 2.13100236,
        "meta_eccentricity": 0.00139998,
        "meta_inclination": 64.7469,
        "meta_ra_of_asc_node": 321.6359,
        "meta_arg_of_pericenter": 305.2634,
        "meta_mean_anomaly": 112.6949,
        "meta_ephemeris_type": 0,
        "meta_classification_type": "U",
        "meta_norad_cat_id": 65590,
        "meta_element_set_no": 999,
        "meta_rev_at_epoch": 184,
        "meta_bstar": 0,
        "meta_mean_motion_dot": -5.1e-07,
        "meta_mean_motion_ddot": 0,
        "tle_line1": "1 65590U 25206B   25342.07350132 -.00000051  00000+0  00000+0 0  9992",
        "tle_line2": "2 65590  64.7469 321.6359 0013999 305.2634 112.6949  2.13100236  1849"
      },
      "geometry": {
        "type": "Point",
        "coordinates": [
          124.29943863850734,
          32.22318069834153
        ]
      }
    }
  ]
}